{"type": "FeatureCollection", "features": [{"type": "Feature", "properties": {"norad_id": 32275, "name": "COSMOS 2433 (720)", "group": "glo-ops", "lat": -29.386525179930732, "lon": 157.34225114193873, "alt_km": 19122.62413844137, "timestamp": "2025-12-01T03:58:49.225414+00:00", "meta": {"OBJECT_NAME": "COSMOS 2433 (720)", "OBJECT_ID": "2007-052A", "EPOCH": "2025-11-29T22:48:15.126048", "MEAN_MOTION": 2.13103951, "ECCENTRICITY": 0.00056232, "INCLINATION": 65.6901, "RA_OF_ASC_NODE": 322.6356, "ARG_OF_PERICENTER": 251.628, "MEAN_ANOMALY": 108.3293, "EPHEMERIS_TYPE": 0, "CLASSIFICATION_TYPE": "U", "NORAD_CAT_ID": 32275, "ELEMENT_SET_NO": 999, "REV_AT_EPOCH": 14081, "BSTAR": 0, "MEAN_MOTION_DOT": -1.8e-07, "MEAN_MOTION_DDOT": 0, "GROUP": "glo-ops"}, "tle": {"line1": "1 32275U 07052A   25333.95017507 -.00000018  00000+0  00000+0 0  9991", "line2": "2 32275  65.6901 322.6356 0005623 251.6280 108.3293  2.13103951140810"}}, "geometry": {"type": "Point", "coordinates": [157.34225114193873, -29.386525179930732]}}, {"type": "Feature", "properties": {"norad_id": 32276, "name": "COSMOS 2432 (719)", "group": "glo-ops", "lat": 20.797171860965012, "lon": 132.8345591510301, "alt_km": 19153.297337873333, "timestamp": "2025-12-01T03:58:49.225437+00:00", "meta": {"OBJECT_NAME": "COSMOS 2432 (719)", "OBJECT_ID": "2007-052B", "EPOCH": "2025-11-30T02:17:25.628064", "MEAN_MOTION": 2.13103086, "ECCENTRICITY": 0.00112175, "INCLINATION": 65.7059, "RA_OF_ASC_NODE": 322.7547, "ARG_OF_PERICENTER": 310.9925, "MEAN_ANOMALY": 104.908, "EPHEMERIS_TYPE": 0, "CLASSIFICATION_TYPE": "U", "NORAD_CAT_ID": 32276, "ELEMENT_SET_NO": 999, "REV_AT_EPOCH": 14084, "BSTAR": 0, "MEAN_MOTION_DOT": -1.8e-07, "MEAN_MOTION_DDOT": 0, "GROUP": "glo-ops"}, "tle": {"line1": "1 32276U 07052B   25334.09543551 -.00000018  00000+0  00000+0 0  9991", "line2": "2 32276  65.7059 322.7547 0011217 310.9925 104.9080  2.13103086140848"}}, "geometry": {"type": "Point", "coordinates": [132.8345591510301, 20.797171860965012]}}, {"type": "Feature", "properties": {"norad_id": 32393, "name": "COSMOS 2434 (721)", "group": "glo-ops", "lat": 61.31297651805764, "lon": -42.92794314171616, "alt_km": 19113.97756831362, "timestamp": "2025-12-01T03:58:49.225462+00:00", "meta": {"OBJECT_NAME": "COSMOS 2434 (721)", "OBJECT_ID": "2007-065A", "EPOCH": "2025-11-30T19:06:40.237056", "MEAN_MOTION": 2.13101185, "ECCENTRICITY": 0.0004324, "INCLINATION": 64.3147, "RA_OF_ASC_NODE": 198.6065, "ARG_OF_PERICENTER": 70.6228, "MEAN_ANOMALY": 109.1321, "EPHEMERIS_TYPE": 0, "CLASSIFICATION_TYPE": "U", "NORAD_CAT_ID": 32393, "ELEMENT_SET_NO": 999, "REV_AT_EPOCH": 13954, "BSTAR": 0, "MEAN_MOTION_DOT": 9.8e-07, "MEAN_MOTION_DDOT": 0, "GROUP": "glo-ops"}, "tle": {"line1": "1 32393U 07065A   25334.79629904  .00000098  00000+0  00000+0 0  9996", "line2": "2 32393  64.3147 198.6065 0004324  70.6228 109.1321  2.13101185139541"}}, "geometry": {"type": "Point", "coordinates": [-42.92794314171616, 61.31297651805764]}}, {"type": "Feature", "properties": {"norad_id": 32395, "name": "COSMOS 2436 (723)", "group": "glo-ops", "lat": -48.490459363666005, "lon": 51.571784114850836, "alt_km": 19166.191231246088, "timestamp": "2025-12-01T03:58:49.225489+00:00", "meta": {"OBJECT_NAME": "COSMOS 2436 (723)", "OBJECT_ID": "2007-065C", "EPOCH": "2025-11-30T02:03:42.471936", "MEAN_MOTION": 2.13099987, "ECCENTRICITY": 0.00177044, "INCLINATION": 64.3233, "RA_OF_ASC_NODE": 198.7006, "ARG_OF_PERICENTER": 8.5569, "MEAN_ANOMALY": 119.3435, "EPHEMERIS_TYPE": 0, "CLASSIFICATION_TYPE": "U", "NORAD_CAT_ID": 32395, "ELEMENT_SET_NO": 999, "REV_AT_EPOCH": 13948, "BSTAR": 0, "MEAN_MOTION_DOT": 9.1e-07, "MEAN_MOTION_DDOT": 0, "GROUP": "glo-ops"}, "tle": {"line1": "1 32395U 07065C   25334.08590824  .00000091  00000+0  00000+0 0  9991", "line2": "2 32395  64.3233 198.7006 0017704   8.5569 119.3435  2.13099987139487"}}, "geometry": {"type": "Point", "coordinates": [51.571784114850836, -48.490459363666005]}}, {"type": "Feature", "properties": {"norad_id": 36111, "name": "COSMOS 2456 (730)", "group": "glo-ops", "lat": -63.208142228013415, "lon": -34.253837103207445, "alt_km": 19130.880491507545, "timestamp": "2025-12-01T03:58:49.225518+00:00", "meta": {"OBJECT_NAME": "COSMOS 2456 (730)", "OBJECT_ID": "2009-070A", "EPOCH": "2025-11-30T08:50:19.027392", "MEAN_MOTION": 2.13103442, "ECCENTRICITY": 0.00027211, "INCLINATION": 64.8932, "RA_OF_ASC_NODE": 77.761, "ARG_OF_PERICENTER": 298.5848, "MEAN_ANOMALY": 69.8128, "EPHEMERIS_TYPE": 0, "CLASSIFICATION_TYPE": "U", "NORAD_CAT_ID": 36111, "ELEMENT_SET_NO": 999, "REV_AT_EPOCH": 12419, "BSTAR": 0, "MEAN_MOTION_DOT": -8e-08, "MEAN_MOTION_DDOT": 0, "GROUP": "glo-ops"}, "tle": {"line1": "1 36111U 09070A   25334.36827578 -.00000008  00000+0  00000+0 0  9998", "line2": "2 36111  64.8932  77.7610 0002721 298.5848  69.8128  2.13103442124191"}}, "geometry": {"type": "Point", "coordinates": [-34.253837103207445, -63.208142228013415]}}, {"type": "Feature", "properties": {"norad_id": 36112, "name": "COSMOS 2457 (733)", "group": "glo-ops", "lat": 26.462492998737037, "lon": 91.0663136982404, "alt_km": 19134.49880362641, "timestamp": "2025-12-01T03:58:49.225532+00:00", "meta": {"OBJECT_NAME": "COSMOS 2457 (733)", "OBJECT_ID": "2009-070B", "EPOCH": "2025-11-30T17:16:30.504000", "MEAN_MOTION": 2.13100809, "ECCENTRICITY": 0.000498, "INCLINATION": 64.8786, "RA_OF_ASC_NODE": 77.5967, "ARG_OF_PERICENTER": 155.4262, "MEAN_ANOMALY": 251.9047, "EPHEMERIS_TYPE": 0, "CLASSIFICATION_TYPE": "U", "NORAD_CAT_ID": 36112, "ELEMENT_SET_NO": 999, "REV_AT_EPOCH": 12420, "BSTAR": 0, "MEAN_MOTION_DOT": -1.2e-07, "MEAN_MOTION_DDOT": 0, "GROUP": "glo-ops"}, "tle": {"line1": "1 36112U 09070B   25334.71979750 -.00000012  00000+0  00000+0 0  9993", "line2": "2 36112  64.8786  77.5967 0004980 155.4262 251.9047  2.13100809124202"}}, "geometry": {"type": "Point", "coordinates": [91.0663136982404, 26.462492998737037]}}, {"type": "Feature", "properties": {"norad_id": 36402, "name": "COSMOS 2460 (732)", "group": "glo-ops", "lat": 26.040545343677103, "lon": -25.98462745183701, "alt_km": 19130.217333675886, "timestamp": "2025-12-01T03:58:49.225545+00:00", "meta": {"OBJECT_NAME": "COSMOS 2460 (732)", "OBJECT_ID": "2010-007C", "EPOCH": "2025-11-30T07:40:32.843712", "MEAN_MOTION": 2.13106071, "ECCENTRICITY": 0.00028145, "INCLINATION": 65.5365, "RA_OF_ASC_NODE": 321.1932, "ARG_OF_PERICENTER": 269.4313, "MEAN_ANOMALY": 190.342, "EPHEMERIS_TYPE": 0, "CLASSIFICATION_TYPE": "U", "NORAD_CAT_ID": 36402, "ELEMENT_SET_NO": 999, "REV_AT_EPOCH": 12249, "BSTAR": 0, "MEAN_MOTION_DOT": -2e-07, "MEAN_MOTION_DDOT": 0, "GROUP": "glo-ops"}, "tle": {"line1": "1 36402U 10007C   25334.31982458 -.00000020  00000+0  00000+0 0  9991", "line2": "2 36402  65.5365 321.1932 0002814 269.4313 190.3420  2.13106071122499"}}, "geometry": {"type": "Point", "coordinates": [-25.98462745183701, 26.040545343677103]}}, {"type": "Feature", "properties": {"norad_id": 37867, "name": "COSMOS 2476 (744)", "group": "glo-ops", "lat": 10.408605421192702, "lon": -105.3151862638422, "alt_km": 19102.978360554298, "timestamp": "2025-12-01T03:58:49.225569+00:00", "meta": {"OBJECT_NAME": "COSMOS 2476 (744)", "OBJECT_ID": "2011-064A", "EPOCH": "2025-11-30T12:02:47.177088", "MEAN_MOTION": 2.13101293, "ECCENTRICITY": 0.00238861, "INCLINATION": 65.1558, "RA_OF_ASC_NODE": 79.5857, "ARG_OF_PERICENTER": 233.2678, "MEAN_ANOMALY": 146.1082, "EPHEMERIS_TYPE": 0, "CLASSIFICATION_TYPE": "U", "NORAD_CAT_ID": 37867, "ELEMENT_SET_NO": 999, "REV_AT_EPOCH": 10953, "BSTAR": 0, "MEAN_MOTION_DOT": -6e-08, "MEAN_MOTION_DDOT": 0, "GROUP": "glo-ops"}, "tle": {"line1": "1 37867U 11064A   25334.50193492 -.00000006  00000+0  00000+0 0  9998", "line2": "2 37867  65.1558  79.5857 0023886 233.2678 146.1082  2.13101293109534"}}, "geometry": {"type": "Point", "coordinates": [-105.3151862638422, 10.408605421192702]}}, {"type": "Feature", "properties": {"norad_id": 37868, "name": "COSMOS 2477 (745)", "group": "glo-ops", "lat": -9.253872004896053, "lon": 75.31540915712604, "alt_km": 19155.06586638554, "timestamp": "2025-12-01T03:58:49.225580+00:00", "meta": {"OBJECT_NAME": "COSMOS 2477 (745)", "OBJECT_ID": "2011-064B", "EPOCH": "2025-11-30T06:36:31.023648", "MEAN_MOTION": 2.13102705, "ECCENTRICITY": 0.00209561, "INCLINATION": 65.1621, "RA_OF_ASC_NODE": 79.6706, "ARG_OF_PERICENTER": 233.7234, "MEAN_ANOMALY": 152.702, "EPHEMERIS_TYPE": 0, "CLASSIFICATION_TYPE": "U", "NORAD_CAT_ID": 37868, "ELEMENT_SET_NO": 999, "REV_AT_EPOCH": 10952, "BSTAR": 0, "MEAN_MOTION_DOT": -4e-08, "MEAN_MOTION_DDOT": 0, "GROUP": "glo-ops"}, "tle": {"line1": "1 37868U 11064B   25334.27535907 -.00000004  00000+0  00000+0 0  9992", "line2": "2 37868  65.1621  79.6706 0020956 233.7234 152.7020  2.13102705109521"}}, "geometry": {"type": "Point", "coordinates": [75.31540915712604, -9.253872004896053]}}, {"type": "Feature", "properties": {"norad_id": 37869, "name": "COSMOS 2475 (743)", "group": "glo-ops", "lat": -47.37122187988396, "lon": 49.502016011794275, "alt_km": 19100.131048138614, "timestamp": "2025-12-01T03:58:49.225591+00:00", "meta": {"OBJECT_NAME": "COSMOS 2475 (743)", "OBJECT_ID": "2011-064C", "EPOCH": "2025-11-30T07:33:40.504032", "MEAN_MOTION": 2.13101381, "ECCENTRICITY": 0.00259829, "INCLINATION": 65.1691, "RA_OF_ASC_NODE": 79.6892, "ARG_OF_PERICENTER": 248.134, "MEAN_ANOMALY": 124.7491, "EPHEMERIS_TYPE": 0, "CLASSIFICATION_TYPE": "U", "NORAD_CAT_ID": 37869, "ELEMENT_SET_NO": 999, "REV_AT_EPOCH": 10953, "BSTAR": 0, "MEAN_MOTION_DOT": -4e-08, "MEAN_MOTION_DDOT": 0, "GROUP": "glo-ops"}, "tle": {"line1": "1 37869U 11064C   25334.31505213 -.00000004  00000+0  00000+0 0  9995", "line2": "2 37869  65.1691  79.6892 0025982 248.1340 124.7491  2.13101381109538"}}, "geometry": {"type": "Point", "coordinates": [49.502016011794275, -47.37122187988396]}}]}